[{"OBJECT_NAME":"ONEWEB-0058","OBJECT_ID":"2020-008AG","EPOCH":"2025-08-15T22:24:05.868864","MEAN_MOTION":13.10374045,"ECCENTRICITY":0.0001819,"INCLINATION":87.8773,"RA_OF_ASC_NODE":97.1708,"ARG_OF_PERICENTER":75.7654,"MEAN_ANOMALY":284.3675,"EPHEMERIS_TYPE":0,"CLASSIFICATION_TYPE":"U","NORAD_CAT_ID":45161,"ELEMENT_SET_NO":999,"REV_AT_EPOCH":26844,"BSTAR":0.0017049,"MEAN_MOTION_DOT":6.08e-6,"MEAN_MOTION_DDOT":0},{"OBJECT_NAME":"ONEWEB-0059","OBJECT_ID":"2020-008AH","EPOCH":"2025-08-15T22:19:06.771072","MEAN_MOTION":13.10374785,"ECCENTRICITY":0.0001774,"INCLINATION":87.8779,"RA_OF_ASC_NODE":97.1711,"ARG_OF_PERICENTER":76.0566,"MEAN_ANOMALY":284.0759,"EPHEMERIS_TYPE":0,"CLASSIFICATION_TYPE":"U","NORAD_CAT_ID":45162,"ELEMENT_SET_NO":999,"REV_AT_EPOCH":26834,"BSTAR":0.0018517,"MEAN_MOTION_DOT":6.59e-6,"MEAN_MOTION_DDOT":0},{"OBJECT_NAME":"ONEWEB-0062","OBJECT_ID":"2020-008AJ","EPOCH":"2025-08-16T08:05:55.447584","MEAN_MOTION":13.10369342,"ECCENTRICITY":0.0001451,"INCLINATION":87.8767,"RA_OF_ASC_NODE":97.0686,"ARG_OF_PERICENTER":75.4821,"MEAN_ANOMALY":284.6467,"EPHEMERIS_TYPE":0,"CLASSIFICATION_TYPE":"U","NORAD_CAT_ID":45163,"ELEMENT_SET_NO":999,"REV_AT_EPOCH":26901,"BSTAR":1.7324e-5,"MEAN_MOTION_DOT":1.9e-7,"MEAN_MOTION_DDOT":0},{"OBJECT_NAME":"ONEWEB-0065","OBJECT_ID":"2020-008AK","EPOCH":"2025-08-16T03:57:19.813824","MEAN_MOTION":13.10371373,"ECCENTRICITY":0.0001897,"INCLINATION":87.8775,"RA_OF_ASC_NODE":97.1282,"ARG_OF_PERICENTER":91.9325,"MEAN_ANOMALY":268.202,"EPHEMERIS_TYPE":0,"CLASSIFICATION_TYPE":"U","NORAD_CAT_ID":45164,"ELEMENT_SET_NO":999,"REV_AT_EPOCH":26867,"BSTAR":0.00178,"MEAN_MOTION_DOT":6.34e-6,"MEAN_MOTION_DDOT":0},{"OBJECT_NAME":"ONEWEB-0066","OBJECT_ID":"2020-020A","EPOCH":"2025-08-16T08:11:09.635136","MEAN_MOTION":13.11419225,"ECCENTRICITY":0.0002025,"INCLINATION":87.8789,"RA_OF_ASC_NODE":81.8126,"ARG_OF_PERICENTER":82.3284,"MEAN_ANOMALY":277.8074,"EPHEMERIS_TYPE":0,"CLASSIFICATION_TYPE":"U","NORAD_CAT_ID":45424,"ELEMENT_SET_NO":999,"REV_AT_EPOCH":26273,"BSTAR":0.00024022,"MEAN_MOTION_DOT":9.8e-7,"MEAN_MOTION_DDOT":0},{"OBJECT_NAME":"ONEWEB-0067","OBJECT_ID":"2020-020B","EPOCH":"2025-08-16T07:15:11.194560","MEAN_MOTION":13.11416588,"ECCENTRICITY":0.0001938,"INCLINATION":87.8778,"RA_OF_ASC_NODE":81.7296,"ARG_OF_PERICENTER":83.5109,"MEAN_ANOMALY":276.624,"EPHEMERIS_TYPE":0,"CLASSIFICATION_TYPE":"U","NORAD_CAT_ID":45425,"ELEMENT_SET_NO":999,"REV_AT_EPOCH":26278,"BSTAR":-0.001013,"MEAN_MOTION_DOT":-3.46e-6,"MEAN_MOTION_DDOT":0},{"OBJECT_NAME":"ONEWEB-0080","OBJECT_ID":"2020-020C","EPOCH":"2025-08-16T07:28:26.743296","MEAN_MOTION":13.11416356,"ECCENTRICITY":0.0001784,"INCLINATION":87.8796,"RA_OF_ASC_NODE":81.8187,"ARG_OF_PERICENTER":71.0959,"MEAN_ANOMALY":289.0363,"EPHEMERIS_TYPE":0,"CLASSIFICATION_TYPE":"U","NORAD_CAT_ID":45426,"ELEMENT_SET_NO":999,"REV_AT_EPOCH":26275,"BSTAR":-0.0014076,"MEAN_MOTION_DOT":-4.86e-6,"MEAN_MOTION_DDOT":0},{"OBJECT_NAME":"ONEWEB-0090","OBJECT_ID":"2020-020D","EPOCH":"2025-08-16T07:56:31.800768","MEAN_MOTION":13.11418376,"ECCENTRICITY":0.0001702,"INCLINATION":87.8789,"RA_OF_ASC_NODE":81.8169,"ARG_OF_PERICENTER":82.5476,"MEAN_ANOMALY":277.5845,"EPHEMERIS_TYPE":0,"CLASSIFICATION_TYPE":"U","NORAD_CAT_ID":45427,"ELEMENT_SET_NO":999,"REV_AT_EPOCH":26272,"BSTAR":-0.00026901,"MEAN_MOTION_DOT":-8.3e-7,"MEAN_MOTION_DDOT":0},{"OBJECT_NAME":"ONEWEB-0061","OBJECT_ID":"2020-020E","EPOCH":"2025-08-16T06:52:50.746080","MEAN_MOTION":13.1141583,"ECCENTRICITY":0.0001785,"INCLINATION":87.879,"RA_OF_ASC_NODE":81.807,"ARG_OF_PERICENTER":81.6142,"MEAN_ANOMALY":278.5189,"EPHEMERIS_TYPE":0,"CLASSIFICATION_TYPE":"U","NORAD_CAT_ID":45428,"ELEMENT_SET_NO":999,"REV_AT_EPOCH":26266,"BSTAR":0.00098991,"MEAN_MOTION_DOT":3.64e-6,"MEAN_MOTION_DDOT":0},{"OBJECT_NAME":"ONEWEB-0081","OBJECT_ID":"2020-020F","EPOCH":"2025-08-15T21:16:52.159584","MEAN_MOTION":13.1141893,"ECCENTRICITY":0.0001976,"INCLINATION":87.8787,"RA_OF_ASC_NODE":81.9066,"ARG_OF_PERICENTER":82.3069,"MEAN_ANOMALY":277.8284,"EPHEMERIS_TYPE":0,"CLASSIFICATION_TYPE":"U","NORAD_CAT_ID":45429,"ELEMENT_SET_NO":999,"REV_AT_EPOCH":26272,"BSTAR":0.0012988,"MEAN_MOTION_DOT":4.73e-6,"MEAN_MOTION_DDOT":0},{"OBJECT_NAME":"ONEWEB-0069","OBJECT_ID":"2020-020G","EPOCH":"2025-08-16T08:00:11.487456","MEAN_MOTION":13.11418221,"ECCENTRICITY":0.0001876,"INCLINATION":87.8791,"RA_OF_ASC_NODE":81.8105,"ARG_OF_PERICENTER":85.7002,"MEAN_ANOMALY":274.4341,"EPHEMERIS_TYPE":0,"CLASSIFICATION_TYPE":"U","NORAD_CAT_ID":45430,"ELEMENT_SET_NO":999,"REV_AT_EPOCH":26272,"BSTAR":-0.00011537,"MEAN_MOTION_DOT":-2.8e-7,"MEAN_MOTION_DDOT":0},{"OBJECT_NAME":"ONEWEB-0031","OBJECT_ID":"2020-020H","EPOCH":"2025-08-16T07:19:53.318208","MEAN_MOTION":13.1141455,"ECCENTRICITY":0.0001556,"INCLINATION":87.8788,"RA_OF_ASC_NODE":81.8457,"ARG_OF_PERICENTER":79.2744,"MEAN_ANOMALY":280.8559,"EPHEMERIS_TYPE":0,"CLASSIFICATION_TYPE":"U","NORAD_CAT_ID":45431,"ELEMENT_SET_NO":999,"REV_AT_EPOCH":26269,"BSTAR":-0.0012591,"MEAN_MOTION_DOT":-4.34e-6,"MEAN_MOTION_DDOT":0},{"OBJECT_NAME":"ONEWEB-0027","OBJECT_ID":"2020-020J","EPOCH":"2025-08-16T06:29:11.567328","MEAN_MOTION":13.17648019,"ECCENTRICITY":0.0001379,"INCLINATION":87.9033,"RA_OF_ASC_NODE":66.5138,"ARG_OF_PERICENTER":89.5883,"MEAN_ANOMALY":270.5406,"EPHEMERIS_TYPE":0,"CLASSIFICATION_TYPE":"U","NORAD_CAT_ID":45432,"ELEMENT_SET_NO":999,"REV_AT_EPOCH":26620,"BSTAR":-0.00022314,"MEAN_MOTION_DOT":-7.4e-7,"MEAN_MOTION_DDOT":0},{"OBJECT_NAME":"ONEWEB-0064","OBJECT_ID":"2020-020K","EPOCH":"2025-08-16T07:17:26.846016","MEAN_MOTION":13.11414063,"ECCENTRICITY":0.0001569,"INCLINATION":87.8787,"RA_OF_ASC_NODE":81.8376,"ARG_OF_PERICENTER":82.8455,"MEAN_ANOMALY":277.2851,"EPHEMERIS_TYPE":0,"CLASSIFICATION_TYPE":"U","NORAD_CAT_ID":45433,"ELEMENT_SET_NO":999,"REV_AT_EPOCH":26273,"BSTAR":-0.0010889,"MEAN_MOTION_DOT":-3.73e-6,"MEAN_MOTION_DDOT":0},{"OBJECT_NAME":"ONEWEB-0018","OBJECT_ID":"2020-020L","EPOCH":"2025-08-16T08:03:51.380640","MEAN_MOTION":13.11418224,"ECCENTRICITY":0.000181,"INCLINATION":87.8785,"RA_OF_ASC_NODE":81.8152,"ARG_OF_PERICENTER":82.4586,"MEAN_ANOMALY":277.6747,"EPHEMERIS_TYPE":0,"CLASSIFICATION_TYPE":"U","NORAD_CAT_ID":45434,"ELEMENT_SET_NO":999,"REV_AT_EPOCH":26268,"BSTAR":0.00019613,"MEAN_MOTION_DOT":8.2e-7,"MEAN_MOTION_DDOT":0},{"OBJECT_NAME":"ONEWEB-0083","OBJECT_ID":"2020-020M","EPOCH":"2025-08-16T07:49:10.835904","MEAN_MOTION":13.1141733,"ECCENTRICITY":0.0001693,"INCLINATION":87.8794,"RA_OF_ASC_NODE":81.8045,"ARG_OF_PERICENTER":83.8606,"MEAN_ANOMALY":276.2715,"EPHEMERIS_TYPE":0,"CLASSIFICATION_TYPE":"U","NORAD_CAT_ID":45435,"ELEMENT_SET_NO":999,"REV_AT_EPOCH":26272,"BSTAR":-0.0013401,"MEAN_MOTION_DOT":-4.62e-6,"MEAN_MOTION_DDOT":0},{"OBJECT_NAME":"ONEWEB-0095","OBJECT_ID":"2020-020N","EPOCH":"2025-08-16T07:37:11.185248","MEAN_MOTION":13.11406683,"ECCENTRICITY":0.0001523,"INCLINATION":87.8783,"RA_OF_ASC_NODE":81.8284,"ARG_OF_PERICENTER":110.8678,"MEAN_ANOMALY":249.2613,"EPHEMERIS_TYPE":0,"CLASSIFICATION_TYPE":"U","NORAD_CAT_ID":45436,"ELEMENT_SET_NO":999,"REV_AT_EPOCH":26272,"BSTAR":-0.0015781,"MEAN_MOTION_DOT":-5.46e-6,"MEAN_MOTION_DDOT":0}]
