ONEWEB-0058             
1 45161U 20008AG  25227.93340126  .00000608  00000+0  17049-2 0  9999
2 45161  87.8773  97.1708 0001819  75.7654 284.3675 13.10374045268441
ONEWEB-0059             
1 45162U 20008AH  25227.92993948  .00000659  00000+0  18517-2 0  9992
2 45162  87.8779  97.1711 0001774  76.0566 284.0759 13.10374785268348
ONEWEB-0062             
1 45163U 20008AJ  25228.33744731  .00000019  00000+0  17324-4 0  9990
2 45163  87.8767  97.0686 0001451  75.4821 284.6467 13.10369342269015
ONEWEB-0065             
1 45164U 20008AK  25228.16481266  .00000634  00000+0  17800-2 0  9993
2 45164  87.8775  97.1282 0001897  91.9325 268.2020 13.10371373268675
ONEWEB-0066             
1 45424U 20020A   25228.34108374  .00000098  00000+0  24022-3 0  9991
2 45424  87.8789  81.8126 0002025  82.3284 277.8074 13.11419225262734
ONEWEB-0067             
1 45425U 20020B   25228.30221290 -.00000346  00000+0 -10130-2 0  9993
2 45425  87.8778  81.7296 0001938  83.5109 276.6240 13.11416588262787
ONEWEB-0080             
1 45426U 20020C   25228.31142064 -.00000486  00000+0 -14076-2 0  9994
2 45426  87.8796  81.8187 0001784  71.0959 289.0363 13.11416356262756
ONEWEB-0090             
1 45427U 20020D   25228.33092362 -.00000083  00000+0 -26901-3 0  9996
2 45427  87.8789  81.8169 0001702  82.5476 277.5845 13.11418376262728
ONEWEB-0061             
1 45428U 20020E   25228.28669845  .00000364  00000+0  98991-3 0  9995
2 45428  87.8790  81.8070 0001785  81.6142 278.5189 13.11415830262660
ONEWEB-0081             
1 45429U 20020F   25227.88671481  .00000473  00000+0  12988-2 0  9992
2 45429  87.8787  81.9066 0001976  82.3069 277.8284 13.11418930262720
ONEWEB-0069             
1 45430U 20020G   25228.33346629 -.00000028  00000+0 -11537-3 0  9996
2 45430  87.8791  81.8105 0001876  85.7002 274.4341 13.11418221262723
ONEWEB-0031             
1 45431U 20020H   25228.30547822 -.00000434  00000+0 -12591-2 0  9993
2 45431  87.8788  81.8457 0001556  79.2744 280.8559 13.11414550262695
ONEWEB-0027             
1 45432U 20020J   25228.27027277 -.00000074  00000+0 -22314-3 0  9992
2 45432  87.9033  66.5138 0001379  89.5883 270.5406 13.17648019266200
ONEWEB-0064             
1 45433U 20020K   25228.30378294 -.00000373  00000+0 -10889-2 0  9990
2 45433  87.8787  81.8376 0001569  82.8455 277.2851 13.11414063262738
ONEWEB-0018             
1 45434U 20020L   25228.33601135  .00000082  00000+0  19613-3 0  9997
2 45434  87.8785  81.8152 0001810  82.4586 277.6747 13.11418224262684
ONEWEB-0083             
1 45435U 20020M   25228.32581986 -.00000462  00000+0 -13401-2 0  9990
2 45435  87.8794  81.8045 0001693  83.8606 276.2715 13.11417330262725
ONEWEB-0095             
1 45436U 20020N   25228.31749057 -.00000546  00000+0 -15781-2 0  9991
2 45436  87.8783  81.8284 0001523 110.8678 249.2613 13.11406683262727
